STARLINK-11165 [DTC]    
1 60063U 24113E   24308.61538650 -.00021198  00000+0 -17082-3 0  9990
2 60063  53.1572  91.9422 0001391 121.5645 238.5509 15.69671898 22438
STARLINK-11169 [DTC]    
1 60064U 24113F   24308.61047729 -.00001701  00000+0 -91898-5 0  9990
2 60064  53.1583  91.9123 0000865  87.7488 272.3629 15.69708851 22431
STARLINK-11102 [DTC]    
1 60065U 24113G   24308.60557843 -.00000698  00000+0 -90442-6 0  9992
2 60065  53.1565  91.8768 0001308  73.3625 286.7536 15.69704324 22430
STARLINK-11141 [DTC]    
1 60066U 24113H   24308.60067329  .00070014  00000+0  57647-3 0  9992
2 60066  53.1565  91.8444 0000598 130.4760 229.6310 15.69769230 22430
STARLINK-11153 [DTC]    
1 60067U 24113J   24308.59587242  .00075035  00000+0  62069-3 0  9994
2 60067  53.1566  92.5455 0000671 109.5859 250.5232 15.69628698 22427
STARLINK-11170 [DTC]    
1 60068U 24113K   24308.59096822  .00049278  00000+0  40961-3 0  9991
2 60068  53.1562  92.5130 0001715 132.5888 227.5275 15.69684484 22428
STARLINK-11171 [DTC]    
1 60069U 24113L   24308.58605296  .00001686  00000+0  18776-4 0  9993
2 60069  53.1566  92.4831 0001841 149.7595 210.3530 15.69714483 22422
STARLINK-11186 [DTC]    
1 60070U 24113M   24308.58114238 -.00005264  00000+0 -38628-4 0  9992
2 60070  53.1571  92.4487 0000845 104.0658 256.0454 15.69708193 22832
STARLINK-11184 [DTC]    
1 60071U 24113N   24308.57625078 -.00010575  00000+0 -82519-4 0  9990
2 60071  53.1565  92.4527 0000972  54.5950 305.5159 15.69715494 22425
STARLINK-32032          
1 60077U 24113U   24308.46818736  .00006462  00000+0  17140-3 0  9994
2 60077  53.1597 120.6549 0001456  85.3848 274.7323 15.39618055 22028
STARLINK-31441          
1 60091U 24117A   24308.30067514  .00001537  00000+0  64011-4 0  9995
2 60091  53.1595 159.5013 0000883  98.5482 261.5619 15.30202166 21655
STARLINK-32044          
1 60092U 24117B   24308.08467610  .00001206  00000+0  52810-4 0  9999
2 60092  53.1575 160.2855 0001089 112.4026 247.7091 15.30213685 21621
STARLINK-31239          
1 60093U 24117C   24308.00681240  .00001570  00000+0  65116-4 0  9996
2 60093  53.1597 161.2267 0000669  99.5842 260.5235 15.30204078 21605
STARLINK-32007          
1 60094U 24117D   24308.31967383  .00008935  00000+0  31332-3 0  9990
2 60094  53.1604 159.6226 0001471  93.8531 266.2638 15.30213153 21654
STARLINK-32028          
1 60095U 24117E   24308.31017258  .00001091  00000+0  48950-4 0  9999
2 60095  53.1606 159.5623 0000987 100.2084 259.9028 15.30198403 21656
