[
	{
		"OBJECT_NAME": "STARLINK-11165 [DTC]",
		"OBJECT_ID": "2024-113E",
		"EPOCH": "2024-11-03T14:46:09.393600",
		"MEAN_MOTION": 15.69671898,
		"ECCENTRICITY": 0.0001391,
		"INCLINATION": 53.1572,
		"RA_OF_ASC_NODE": 91.9422,
		"ARG_OF_PERICENTER": 121.5645,
		"MEAN_ANOMALY": 238.5509,
		"EPHEMERIS_TYPE": 0,
		"CLASSIFICATION_TYPE": "U",
		"NORAD_CAT_ID": 60063,
		"ELEMENT_SET_NO": 999,
		"REV_AT_EPOCH": 2243,
		"BSTAR": -0.00017082,
		"MEAN_MOTION_DOT": -0.00021198,
		"MEAN_MOTION_DDOT": 0
	},
	{
		"OBJECT_NAME": "STARLINK-11169 [DTC]",
		"OBJECT_ID": "2024-113F",
		"EPOCH": "2024-11-03T14:39:05.237856",
		"MEAN_MOTION": 15.69708851,
		"ECCENTRICITY": 8.65e-5,
		"INCLINATION": 53.1583,
		"RA_OF_ASC_NODE": 91.9123,
		"ARG_OF_PERICENTER": 87.7488,
		"MEAN_ANOMALY": 272.3629,
		"EPHEMERIS_TYPE": 0,
		"CLASSIFICATION_TYPE": "U",
		"NORAD_CAT_ID": 60064,
		"ELEMENT_SET_NO": 999,
		"REV_AT_EPOCH": 2243,
		"BSTAR": -9.1898e-6,
		"MEAN_MOTION_DOT": -1.701e-5,
		"MEAN_MOTION_DDOT": 0
	},
	{
		"OBJECT_NAME": "STARLINK-11102 [DTC]",
		"OBJECT_ID": "2024-113G",
		"EPOCH": "2024-11-03T14:32:01.976352",
		"MEAN_MOTION": 15.69704324,
		"ECCENTRICITY": 0.0001308,
		"INCLINATION": 53.1565,
		"RA_OF_ASC_NODE": 91.8768,
		"ARG_OF_PERICENTER": 73.3625,
		"MEAN_ANOMALY": 286.7536,
		"EPHEMERIS_TYPE": 0,
		"CLASSIFICATION_TYPE": "U",
		"NORAD_CAT_ID": 60065,
		"ELEMENT_SET_NO": 999,
		"REV_AT_EPOCH": 2243,
		"BSTAR": -9.0442e-7,
		"MEAN_MOTION_DOT": -6.98e-6,
		"MEAN_MOTION_DDOT": 0
	},
	{
		"OBJECT_NAME": "STARLINK-11141 [DTC]",
		"OBJECT_ID": "2024-113H",
		"EPOCH": "2024-11-03T14:24:58.172256",
		"MEAN_MOTION": 15.6976923,
		"ECCENTRICITY": 5.98e-5,
		"INCLINATION": 53.1565,
		"RA_OF_ASC_NODE": 91.8444,
		"ARG_OF_PERICENTER": 130.476,
		"MEAN_ANOMALY": 229.631,
		"EPHEMERIS_TYPE": 0,
		"CLASSIFICATION_TYPE": "U",
		"NORAD_CAT_ID": 60066,
		"ELEMENT_SET_NO": 999,
		"REV_AT_EPOCH": 2243,
		"BSTAR": 0.00057647,
		"MEAN_MOTION_DOT": 0.00070014,
		"MEAN_MOTION_DDOT": 0
	},
	{
		"OBJECT_NAME": "STARLINK-11153 [DTC]",
		"OBJECT_ID": "2024-113J",
		"EPOCH": "2024-11-03T14:18:03.377088",
		"MEAN_MOTION": 15.69628698,
		"ECCENTRICITY": 6.71e-5,
		"INCLINATION": 53.1566,
		"RA_OF_ASC_NODE": 92.5455,
		"ARG_OF_PERICENTER": 109.5859,
		"MEAN_ANOMALY": 250.5232,
		"EPHEMERIS_TYPE": 0,
		"CLASSIFICATION_TYPE": "U",
		"NORAD_CAT_ID": 60067,
		"ELEMENT_SET_NO": 999,
		"REV_AT_EPOCH": 2242,
		"BSTAR": 0.00062069,
		"MEAN_MOTION_DOT": 0.00075035,
		"MEAN_MOTION_DDOT": 0
	},
	{
		"OBJECT_NAME": "STARLINK-11170 [DTC]",
		"OBJECT_ID": "2024-113K",
		"EPOCH": "2024-11-03T14:10:59.654208",
		"MEAN_MOTION": 15.69684484,
		"ECCENTRICITY": 0.0001715,
		"INCLINATION": 53.1562,
		"RA_OF_ASC_NODE": 92.513,
		"ARG_OF_PERICENTER": 132.5888,
		"MEAN_ANOMALY": 227.5275,
		"EPHEMERIS_TYPE": 0,
		"CLASSIFICATION_TYPE": "U",
		"NORAD_CAT_ID": 60068,
		"ELEMENT_SET_NO": 999,
		"REV_AT_EPOCH": 2242,
		"BSTAR": 0.00040961,
		"MEAN_MOTION_DOT": 0.00049278,
		"MEAN_MOTION_DDOT": 0
	},
	{
		"OBJECT_NAME": "STARLINK-11171 [DTC]",
		"OBJECT_ID": "2024-113L",
		"EPOCH": "2024-11-03T14:03:54.975744",
		"MEAN_MOTION": 15.69714483,
		"ECCENTRICITY": 0.0001841,
		"INCLINATION": 53.1566,
		"RA_OF_ASC_NODE": 92.4831,
		"ARG_OF_PERICENTER": 149.7595,
		"MEAN_ANOMALY": 210.353,
		"EPHEMERIS_TYPE": 0,
		"CLASSIFICATION_TYPE": "U",
		"NORAD_CAT_ID": 60069,
		"ELEMENT_SET_NO": 999,
		"REV_AT_EPOCH": 2242,
		"BSTAR": 1.8776e-5,
		"MEAN_MOTION_DOT": 1.686e-5,
		"MEAN_MOTION_DDOT": 0
	},
	{
		"OBJECT_NAME": "STARLINK-11186 [DTC]",
		"OBJECT_ID": "2024-113M",
		"EPOCH": "2024-11-03T13:56:50.701632",
		"MEAN_MOTION": 15.69708193,
		"ECCENTRICITY": 8.45e-5,
		"INCLINATION": 53.1571,
		"RA_OF_ASC_NODE": 92.4487,
		"ARG_OF_PERICENTER": 104.0658,
		"MEAN_ANOMALY": 256.0454,
		"EPHEMERIS_TYPE": 0,
		"CLASSIFICATION_TYPE": "U",
		"NORAD_CAT_ID": 60070,
		"ELEMENT_SET_NO": 999,
		"REV_AT_EPOCH": 2283,
		"BSTAR": -3.8628e-5,
		"MEAN_MOTION_DOT": -5.264e-5,
		"MEAN_MOTION_DDOT": 0
	},
	{
		"OBJECT_NAME": "STARLINK-11184 [DTC]",
		"OBJECT_ID": "2024-113N",
		"EPOCH": "2024-11-03T13:49:48.067392",
		"MEAN_MOTION": 15.69715494,
		"ECCENTRICITY": 9.72e-5,
		"INCLINATION": 53.1565,
		"RA_OF_ASC_NODE": 92.4527,
		"ARG_OF_PERICENTER": 54.595,
		"MEAN_ANOMALY": 305.5159,
		"EPHEMERIS_TYPE": 0,
		"CLASSIFICATION_TYPE": "U",
		"NORAD_CAT_ID": 60071,
		"ELEMENT_SET_NO": 999,
		"REV_AT_EPOCH": 2242,
		"BSTAR": -8.2519e-5,
		"MEAN_MOTION_DOT": -0.00010575,
		"MEAN_MOTION_DDOT": 0
	},
	{
		"OBJECT_NAME": "STARLINK-32032",
		"OBJECT_ID": "2024-113U",
		"EPOCH": "2024-11-03T11:14:11.387904",
		"MEAN_MOTION": 15.39618055,
		"ECCENTRICITY": 0.0001456,
		"INCLINATION": 53.1597,
		"RA_OF_ASC_NODE": 120.6549,
		"ARG_OF_PERICENTER": 85.3848,
		"MEAN_ANOMALY": 274.7323,
		"EPHEMERIS_TYPE": 0,
		"CLASSIFICATION_TYPE": "U",
		"NORAD_CAT_ID": 60077,
		"ELEMENT_SET_NO": 999,
		"REV_AT_EPOCH": 2202,
		"BSTAR": 0.0001714,
		"MEAN_MOTION_DOT": 6.462e-5,
		"MEAN_MOTION_DDOT": 0
	},
	{
		"OBJECT_NAME": "STARLINK-31441",
		"OBJECT_ID": "2024-117A",
		"EPOCH": "2024-11-03T07:12:58.332096",
		"MEAN_MOTION": 15.30202166,
		"ECCENTRICITY": 8.83e-5,
		"INCLINATION": 53.1595,
		"RA_OF_ASC_NODE": 159.5013,
		"ARG_OF_PERICENTER": 98.5482,
		"MEAN_ANOMALY": 261.5619,
		"EPHEMERIS_TYPE": 0,
		"CLASSIFICATION_TYPE": "U",
		"NORAD_CAT_ID": 60091,
		"ELEMENT_SET_NO": 999,
		"REV_AT_EPOCH": 2165,
		"BSTAR": 6.4011e-5,
		"MEAN_MOTION_DOT": 1.537e-5,
		"MEAN_MOTION_DDOT": 0
	},
	{
		"OBJECT_NAME": "STARLINK-32044",
		"OBJECT_ID": "2024-117B",
		"EPOCH": "2024-11-03T02:01:56.015040",
		"MEAN_MOTION": 15.30213685,
		"ECCENTRICITY": 0.0001089,
		"INCLINATION": 53.1575,
		"RA_OF_ASC_NODE": 160.2855,
		"ARG_OF_PERICENTER": 112.4026,
		"MEAN_ANOMALY": 247.7091,
		"EPHEMERIS_TYPE": 0,
		"CLASSIFICATION_TYPE": "U",
		"NORAD_CAT_ID": 60092,
		"ELEMENT_SET_NO": 999,
		"REV_AT_EPOCH": 2162,
		"BSTAR": 5.281e-5,
		"MEAN_MOTION_DOT": 1.206e-5,
		"MEAN_MOTION_DDOT": 0
	},
	{
		"OBJECT_NAME": "STARLINK-31239",
		"OBJECT_ID": "2024-117C",
		"EPOCH": "2024-11-03T00:09:48.591360",
		"MEAN_MOTION": 15.30204078,
		"ECCENTRICITY": 6.69e-5,
		"INCLINATION": 53.1597,
		"RA_OF_ASC_NODE": 161.2267,
		"ARG_OF_PERICENTER": 99.5842,
		"MEAN_ANOMALY": 260.5235,
		"EPHEMERIS_TYPE": 0,
		"CLASSIFICATION_TYPE": "U",
		"NORAD_CAT_ID": 60093,
		"ELEMENT_SET_NO": 999,
		"REV_AT_EPOCH": 2160,
		"BSTAR": 6.5116e-5,
		"MEAN_MOTION_DOT": 1.57e-5,
		"MEAN_MOTION_DDOT": 0
	},
	{
		"OBJECT_NAME": "STARLINK-32007",
		"OBJECT_ID": "2024-117D",
		"EPOCH": "2024-11-03T07:40:19.818912",
		"MEAN_MOTION": 15.30213153,
		"ECCENTRICITY": 0.0001471,
		"INCLINATION": 53.1604,
		"RA_OF_ASC_NODE": 159.6226,
		"ARG_OF_PERICENTER": 93.8531,
		"MEAN_ANOMALY": 266.2638,
		"EPHEMERIS_TYPE": 0,
		"CLASSIFICATION_TYPE": "U",
		"NORAD_CAT_ID": 60094,
		"ELEMENT_SET_NO": 999,
		"REV_AT_EPOCH": 2165,
		"BSTAR": 0.00031332,
		"MEAN_MOTION_DOT": 8.935e-5,
		"MEAN_MOTION_DDOT": 0
	},
	{
		"OBJECT_NAME": "STARLINK-32028",
		"OBJECT_ID": "2024-117E",
		"EPOCH": "2024-11-03T07:26:38.910912",
		"MEAN_MOTION": 15.30198403,
		"ECCENTRICITY": 9.87e-5,
		"INCLINATION": 53.1606,
		"RA_OF_ASC_NODE": 159.5623,
		"ARG_OF_PERICENTER": 100.2084,
		"MEAN_ANOMALY": 259.9028,
		"EPHEMERIS_TYPE": 0,
		"CLASSIFICATION_TYPE": "U",
		"NORAD_CAT_ID": 60095,
		"ELEMENT_SET_NO": 999,
		"REV_AT_EPOCH": 2165,
		"BSTAR": 4.895e-5,
		"MEAN_MOTION_DOT": 1.091e-5,
		"MEAN_MOTION_DDOT": 0
	}
]
